address_id,address_line_1,address_line_2,district,city,postal_code,country,phone,created_at,last_updated
1,123 Test,Test,Testshire,Test,23452-3212,Test,1234 123456,2022-11-03 14:20:49.962,2022-11-03 14:20:49.962
2,123 Test,Test,Testshire,Test,23452-3212,Test,1234 123456,2022-11-03 14:20:49.962,2022-11-03 14:20:49.962
3,123 Test,Test,Testshire,Test,23452-3212,Test,1234 123456,2022-11-03 14:20:49.962,2022-11-03 14:20:49.962
4,123 Test,Test,Testshire,Test,23452-3212,Test,1234 123456,2022-11-03 14:20:49.962,2022-11-03 14:20:49.962
5,123 Test,Test,Testshire,Test,23452-3212,Test,1234 123456,2022-11-03 14:20:49.962,2022-11-03 14:20:49.962
6,123 Test,Test,Testshire,Test,23452-3212,Test,1234 123456,2022-11-03 14:20:49.962,2022-11-03 14:20:49.962
7,123 Test,Test,Testshire,Test,23452-3212,Test,1234 123456,2022-11-03 14:20:49.962,2022-11-03 14:20:49.962
8,123 Test,Test,Testshire,Test,23452-3212,Test,1234 123456,2022-11-03 14:20:49.962,2022-11-03 14:20:49.962
9,123 Test,Test,Testshire,Test,23452-3212,Test,1234 123456,2022-11-03 14:20:49.962,2022-11-03 14:20:49.962
10,123 Test,Test,Testshire,Test,23452-3212,Test,1234 123456,2022-11-03 14:20:49.962,2022-11-03 14:20:49.962
11,123 Test,Test,Testshire,Test,23452-3212,Test,1234 123456,2022-11-03 14:20:49.962,2022-11-03 14:20:49.962
12,123 Test,Test,Testshire,Test,23452-3212,Test,1234 123456,2022-11-03 14:20:49.962,2022-11-03 14:20:49.962
13,123 Test,Test,Testshire,Test,23452-3212,Test,1234 123456,2022-11-03 14:20:49.962,2022-11-03 14:20:49.962
14,123 Test,Test,Testshire,Test,23452-3212,Test,1234 123456,2022-11-03 14:20:49.962,2022-11-03 14:20:49.962
15,123 Test,Test,Testshire,Test,23452-3212,Test,1234 123456,2022-11-03 14:20:49.962,2022-11-03 14:20:49.962
16,123 Test,Test,Testshire,Test,23452-3212,Test,1234 123456,2022-11-03 14:20:49.962,2022-11-03 14:20:49.962
17,123 Test,Test,Testshire,Test,23452-3212,Test,1234 123456,2022-11-03 14:20:49.962,2022-11-03 14:20:49.962
18,123 Test,Test,Testshire,Test,23452-3212,Test,1234 123456,2022-11-03 14:20:49.962,2022-11-03 14:20:49.962
19,123 Test,Test,Testshire,Test,23452-3212,Test,1234 123456,2022-11-03 14:20:49.962,2022-11-03 14:20:49.962
20,123 Test,Test,Testshire,Test,23452-3212,Test,1234 123456,2022-11-03 14:20:49.962,2022-11-03 14:20:49.962
21,123 Test,Test,Testshire,Test,23452-3212,Test,1234 123456,2022-11-03 14:20:49.962,2022-11-03 14:20:49.962
22,123 Test,Test,Testshire,Test,23452-3212,Test,1234 123456,2022-11-03 14:20:49.962,2022-11-03 14:20:49.962
23,123 Test,Test,Testshire,Test,23452-3212,Test,1234 123456,2022-11-03 14:20:49.962,2022-11-03 14:20:49.962
24,123 Test,Test,Testshire,Test,23452-3212,Test,1234 123456,2022-11-03 14:20:49.962,2022-11-03 14:20:49.962
25,123 Test,Test,Testshire,Test,23452-3212,Test,1234 123456,2022-11-03 14:20:49.962,2022-11-03 14:20:49.962
26,123 Test,Test,Testshire,Test,23452-3212,Test,1234 123456,2022-11-03 14:20:49.962,2022-11-03 14:20:49.962
27,123 Test,Test,Testshire,Test,23452-3212,Test,1234 123456,2022-11-03 14:20:49.962,2022-11-03 14:20:49.962
28,123 Test,Test,Testshire,Test,23452-3212,Test,1234 123456,2022-11-03 14:20:49.962,2022-11-03 14:20:49.962
29,123 Test,Test,Testshire,Test,23452-3212,Test,1234 123456,2022-11-03 14:20:49.962,2022-11-03 14:20:49.962
30,123 Test,Test,Testshire,Test,23452-3212,Test,1234 123456,2022-11-03 14:20:49.962,2022-11-03 14:20:49.962
